#aV2008 12  4  0  0   .00000000      96 DD+AD WGS84 FIT  NGA
## 1508 345600.00000000   900.00000000 54804  .0000000000000
+   31     2  3  4  5  6  7  8  9 10 11 12 13 14 15 16 17 18
+         19 20 21 22 23 24 25 26 27 28 29 30 31 32  0  0  0
+          0  0  0  0  0  0  0  0  0  0  0  0  0  0  0  0  0
+          0  0  0  0  0  0  0  0  0  0  0  0  0  0  0  0  0
+          0  0  0  0  0  0  0  0  0  0  0  0  0  0  0  0  0
++         0  0  0  0  0  0  0  0  0  0  0  0  0  0  0  0  0
++         0  0  0  0  0  0  0  0  0  0  0  0  0  0  0  0  0
++         0  0  0  0  0  0  0  0  0  0  0  0  0  0  0  0  0
++         0  0  0  0  0  0  0  0  0  0  0  0  0  0  0  0  0
++         0  0  0  0  0  0  0  0  0  0  0  0  0  0  0  0  0
%c cc cc ccc ccc cccc cccc cccc cccc ccccc ccccc ccccc ccccc
%c cc cc ccc ccc cccc cccc cccc cccc ccccc ccccc ccccc ccccc
%f  0.0000000  0.000000000  0.00000000000  0.000000000000000
%f  0.0000000  0.000000000  0.00000000000  0.000000000000000
%i    0    0    0    0      0      0      0      0         0
%i    0    0    0    0      0      0      0      0         0
/*      NGA, ST. LOUIS,MO.                                  
/*   EPHEMERIS COMPUTED FROM  3 DAYS OF DATA                
/* CCCCCCCCCCCCCCCCCCCCCCCCCCCCCCCCCCCCCCCCCCCCCCCCCCCCCCCCC
/* CCCCCCCCCCCCCCCCCCCCCCCCCCCCCCCCCCCCCCCCCCCCCCCCCCCCCCCCC
*  2008 12  4 11 15   .00000000                                                 
P  2 -20150.669488  13722.295159   9931.992495    169.107312                    
V  2 -13369.955452    598.313845 -27972.343275      -.023142                    
P  3  10726.516941 -21568.240062  10492.245525    320.049455                    
V  3   1946.980444  14313.038084  27039.815952       .052306                    
P  4 -26097.393638   5164.696404  -3042.395523   -253.431294                    
V  4   2702.795005  -3957.976419 -30772.123341      -.125699                    
P  5  12365.791489  20580.503377 -11784.697054   -396.456032                    
V  5 -13023.361298  -6903.067743 -26262.833759       .080123                    
P  6  14012.850488 -17900.321314  13909.032508    129.966235                    
V  6   -644.292407  17638.421255  23678.312423      -.087350                    
P  7 -15641.435270  -9356.719462  19337.360257     23.484881                    
V  7  23216.109490  -8067.861201  14753.186289       .000906                    
P  8 -24784.667292  -1074.319263  10092.901832   -180.684293                    
V  8  12059.239808  -4269.977943  28491.366549      -.016883                    
P  9  -1579.516767  16066.434766 -21713.553788     28.022548                    
V  9 -24900.522289   7707.703424   7859.147840       .019567                    
P 10  -9159.484239  12172.733957  21595.222494     -7.926685                    
V 10 -19918.255704 -19375.243779   2786.514899      -.004573                    
P 11  -1873.783047 -17420.323881 -20085.224745     14.075169                    
V 11  23158.546441 -10744.342146   7581.367637      -.009097                    
P 12   7693.368756  21049.097160 -14259.089710   -336.293724                    
V 12 -14491.431262 -11156.148494 -24069.213302       .026882                    
P 13  -6571.319079 -18446.429049  17830.371572    279.788727                    
V 13   7530.864303 -21541.510417 -19381.295993       .014421                    
P 14  15445.989165  -3512.157427 -21180.011704   -186.308270                    
V 14  -6675.531864  26290.447684  -9284.354272       .049374                    
P 15  -6311.287070  25774.650205    588.529631   -221.283233                    
V 15  -2739.539132  -1353.250245  31680.582743      -.060539                    
P 16  14198.446835  -6785.799412  21483.801233     91.202582                    
V 16  18943.582151  19367.628948  -6209.418330      -.024699                    
P 17 -15620.577218    445.732200 -21411.384965     41.475534                    
V 17   6276.749847 -26597.156514  -5299.848318       .006250                    
P 18  20153.365259  17288.167403  -3107.953116   -106.466360                    
V 18    792.012240   5065.496410  30842.836487       .038057                    
P 19   7219.784934 -25404.910742  -1195.303416     35.179077                    
V 19   3470.447647   -578.065521  31764.707985      -.002467                    
P 20 -10593.926311 -21335.736318 -11911.797610     97.326958                    
V 20  12877.995872   8086.976984 -26150.000659      -.010314                    
P 21  20307.704291   6924.153346  16253.070298     39.847035                    
V 21 -18868.482761   7111.829800  20209.474580      -.016091                    
P 22  21328.130578   7608.956188 -13764.774515    208.499597                    
V 22  10514.867956  14561.253768  24001.300731      -.003576                    
P 23  -1639.381714 -24064.850272  10759.161894    381.816425                    
V 23   5635.182706 -12835.690801 -27988.456820       .010151                    
P 24   5179.004694  14638.801865  21679.712762    146.357232                    
V 24 -26412.450235   6651.968812   2101.714081       .032437                    
P 25  -8608.086808 -12836.802356  21943.461064     74.349152                    
V 25  24937.354751 -10378.312582   3948.497788       .292226                    
P 26 -10519.998839  23372.049429   5286.002779     22.595110                    
V 26    -41.739067  -7776.061314  31860.007705       .041797                    
P 27 -21039.130474  -4318.591860  16395.370885      5.185883                    
V 27  17871.574960  -7900.828056  21643.227179       .030308                    
P 28 -21487.881779  -9776.156875 -12095.754452    -23.707277                    
V 28  -9679.411688 -12744.095789  26284.092020      -.000028                    
P 29   6921.795779  19547.739912  16720.174592    -26.757472                    
V 29  -7141.263095  19856.678173 -20347.643887       .020369                    
P 30  18001.261371  19301.262629  -3712.053900    111.639863                    
V 30  -5189.110956   -558.423922 -31006.039613       .022784                    
P 31  25509.768797  -7610.063760     43.041337    -41.901590                    
V 31    496.250785   2371.462891 -31898.808681      -.017680                    
P 32  -2921.817917 -20411.229168 -16441.095183    311.407522                    
V 32  15592.140176  15018.854925 -20671.046449      -.017265                    
EOF
